JILIN-1 GAOFEN 3A       
1 44312U 19032C   26190.56815177  .00006947  00000+0  22232-3 0  9996
2 44312  44.9743 233.7161 0004686  63.2120 296.9244 15.33119199391278
JILIN-1 GAOFEN 2A       
1 44777U 19075A   26190.81788582  .00010125  00000+0  25645-3 0  9999
2 44777  97.4962 275.1453 0005736  15.0138 345.1277 15.39920662368362
JILIN-1 GAOFEN 2B       
1 44836U 19086A   26190.84663279  .00003816  00000+0  17514-3 0  9990
2 44836  97.4875 262.6978 0012805 235.9674 124.0346 15.20961561363939
JILIN-1 GAOFEN 3E       
1 46457U 20065D   26190.85575074  .00059089  00000+0  56051-3 0  9998
2 46457  97.2220 244.0321 0011069  89.0053 271.2476 15.66659284323300
JILIN-1 GAOFEN 3F       
1 46458U 20065E   26190.85930519  .00049877  00000+0  53706-3 0  9996
2 46458  97.2180 241.2561 0012440  75.6648 284.5992 15.63472581323249
JILIN-1 GAOFEN 3G       
1 46459U 20065F   26190.85203388  .00099386  00000+0  63746-3 0  9999
2 46459  97.2238 248.4632 0004880 303.6118  56.4681 15.75959184323509
JILIN-1 GAOFEN 3H       
1 46460U 20065G   26190.81641770  .00079525  00000+0  61806-3 0  9996
2 46460  97.2187 244.6021 0005548 222.0694 138.0144 15.71515674323430
JILIN-1 GAOFEN 2D       
1 49256U 21086A   26190.81220633  .00003176  00000+0  19238-3 0  9998
2 49256  97.6497 313.5204 0034369  68.4696 292.0191 15.10839961264135
JILIN-1 GAOFEN 2F       
1 49338U 21097A   26190.79733426  .00002087  00000+0  13958-3 0  9990
2 49338  97.6720 316.9462 0019587 146.7303 213.5161 15.07923578259726
JILIN-1 GAOFEN 3D27     
1 52444U 22048B   26190.85362354  .00146651  00000+0  72494-3 0  9990
2 52444  97.5712 306.9504 0004530 258.2754 101.8005 15.81648639233053
JILIN-1 GAOFEN 3D28     
1 52445U 22048C   26190.67410257  .00194076  00000+0  77292-3 0  9992
2 52445  97.5648 307.0162 0004162 251.9823 108.0994 15.86124176233081
JILIN-1 GAOFEN 3D29     
1 52446U 22048D   26190.77596525  .00150649  00000+0  73848-3 0  9998
2 52446  97.5712 307.2294 0003949 237.2312 122.8576 15.81823807233064
JILIN-1 GAOFEN 3D31     
1 52448U 22048F   26190.77576546  .00268457  28894-4  84874-3 0  9995
2 52448  97.5690 308.4915 0005008 245.1655 114.9098 15.91251461233164
JILIN-1 GAOFEN 03D09    
1 53445U 22098B   26190.86621539  .00066056  00000+0  55635-3 0  9999
2 53445  97.5614 322.2923 0003081 251.7649 108.3277 15.69636062218186
JILIN-1 GAOFEN 03D43    
1 53448U 22098E   26190.79107674  .00084195  00000+0  60845-3 0  9996
2 53448  97.5600 323.3413 0003373 243.2003 116.8915 15.73238490218242
JILIN-1 GAOFEN 03D08    
1 54251U 22155A   26190.85208979  .00054854  00000+0  51371-3 0  9993
2 54251  97.6222 338.1074 0003973 247.6835 112.4004 15.67065049203369
