{"fetched_at":"2026-07-10T07:59:06.781Z","source":"https://celestrak.org/NORAD/elements/gp.php?NAME=JILIN&FORMAT=JSON","constellation":"jilin-1-gaofen","records":[{"OBJECT_NAME":"JILIN-1 GAOFEN 3A","OBJECT_ID":"2019-032C","EPOCH":"2026-07-09T13:38:08.312928","CLASSIFICATION_TYPE":"U","MEAN_MOTION":15.33119199,"ECCENTRICITY":0.0004686,"INCLINATION":44.9743,"RA_OF_ASC_NODE":233.7161,"ARG_OF_PERICENTER":63.212,"MEAN_ANOMALY":296.9244,"EPHEMERIS_TYPE":0,"NORAD_CAT_ID":44312,"ELEMENT_SET_NO":999,"REV_AT_EPOCH":39127,"BSTAR":0.00022232,"MEAN_MOTION_DOT":0.00006947,"MEAN_MOTION_DDOT":0},{"OBJECT_NAME":"JILIN-1 GAOFEN 2A","OBJECT_ID":"2019-075A","EPOCH":"2026-07-09T19:37:45.334848","CLASSIFICATION_TYPE":"U","MEAN_MOTION":15.39920662,"ECCENTRICITY":0.0005736,"INCLINATION":97.4962,"RA_OF_ASC_NODE":275.1453,"ARG_OF_PERICENTER":15.0138,"MEAN_ANOMALY":345.1277,"EPHEMERIS_TYPE":0,"NORAD_CAT_ID":44777,"ELEMENT_SET_NO":999,"REV_AT_EPOCH":36836,"BSTAR":0.00025645,"MEAN_MOTION_DOT":0.00010125,"MEAN_MOTION_DDOT":0},{"OBJECT_NAME":"JILIN-1 GAOFEN 2B","OBJECT_ID":"2019-086A","EPOCH":"2026-07-09T20:19:09.073056","CLASSIFICATION_TYPE":"U","MEAN_MOTION":15.20961561,"ECCENTRICITY":0.0012805,"INCLINATION":97.4875,"RA_OF_ASC_NODE":262.6978,"ARG_OF_PERICENTER":235.9674,"MEAN_ANOMALY":124.0346,"EPHEMERIS_TYPE":0,"NORAD_CAT_ID":44836,"ELEMENT_SET_NO":999,"REV_AT_EPOCH":36393,"BSTAR":0.00017514,"MEAN_MOTION_DOT":0.00003816,"MEAN_MOTION_DDOT":0},{"OBJECT_NAME":"JILIN-1 GAOFEN 3E","OBJECT_ID":"2020-065D","EPOCH":"2026-07-09T20:32:16.863936","CLASSIFICATION_TYPE":"U","MEAN_MOTION":15.66659284,"ECCENTRICITY":0.0011069,"INCLINATION":97.222,"RA_OF_ASC_NODE":244.0321,"ARG_OF_PERICENTER":89.0053,"MEAN_ANOMALY":271.2476,"EPHEMERIS_TYPE":0,"NORAD_CAT_ID":46457,"ELEMENT_SET_NO":999,"REV_AT_EPOCH":32330,"BSTAR":0.00056051,"MEAN_MOTION_DOT":0.00059089,"MEAN_MOTION_DDOT":0},{"OBJECT_NAME":"JILIN-1 GAOFEN 3F","OBJECT_ID":"2020-065E","EPOCH":"2026-07-09T20:37:23.968416","CLASSIFICATION_TYPE":"U","MEAN_MOTION":15.63472581,"ECCENTRICITY":0.001244,"INCLINATION":97.218,"RA_OF_ASC_NODE":241.2561,"ARG_OF_PERICENTER":75.6648,"MEAN_ANOMALY":284.5992,"EPHEMERIS_TYPE":0,"NORAD_CAT_ID":46458,"ELEMENT_SET_NO":999,"REV_AT_EPOCH":32324,"BSTAR":0.00053706,"MEAN_MOTION_DOT":0.00049877,"MEAN_MOTION_DDOT":0},{"OBJECT_NAME":"JILIN-1 GAOFEN 3G","OBJECT_ID":"2020-065F","EPOCH":"2026-07-09T20:26:55.727232","CLASSIFICATION_TYPE":"U","MEAN_MOTION":15.75959184,"ECCENTRICITY":0.000488,"INCLINATION":97.2238,"RA_OF_ASC_NODE":248.4632,"ARG_OF_PERICENTER":303.6118,"MEAN_ANOMALY":56.4681,"EPHEMERIS_TYPE":0,"NORAD_CAT_ID":46459,"ELEMENT_SET_NO":999,"REV_AT_EPOCH":32350,"BSTAR":0.00063746,"MEAN_MOTION_DOT":0.00099386,"MEAN_MOTION_DDOT":0},{"OBJECT_NAME":"JILIN-1 GAOFEN 3H","OBJECT_ID":"2020-065G","EPOCH":"2026-07-09T19:35:38.489280","CLASSIFICATION_TYPE":"U","MEAN_MOTION":15.71515674,"ECCENTRICITY":0.0005548,"INCLINATION":97.2187,"RA_OF_ASC_NODE":244.6021,"ARG_OF_PERICENTER":222.0694,"MEAN_ANOMALY":138.0144,"EPHEMERIS_TYPE":0,"NORAD_CAT_ID":46460,"ELEMENT_SET_NO":999,"REV_AT_EPOCH":32343,"BSTAR":0.00061806,"MEAN_MOTION_DOT":0.00079525,"MEAN_MOTION_DDOT":0},{"OBJECT_NAME":"JILIN-1 GAOFEN 2D","OBJECT_ID":"2021-086A","EPOCH":"2026-07-09T19:29:34.626912","CLASSIFICATION_TYPE":"U","MEAN_MOTION":15.10839961,"ECCENTRICITY":0.0034369,"INCLINATION":97.6497,"RA_OF_ASC_NODE":313.5204,"ARG_OF_PERICENTER":68.4696,"MEAN_ANOMALY":292.0191,"EPHEMERIS_TYPE":0,"NORAD_CAT_ID":49256,"ELEMENT_SET_NO":999,"REV_AT_EPOCH":26413,"BSTAR":0.00019238,"MEAN_MOTION_DOT":0.00003176,"MEAN_MOTION_DDOT":0},{"OBJECT_NAME":"JILIN-1 GAOFEN 2F","OBJECT_ID":"2021-097A","EPOCH":"2026-07-09T19:08:09.680064","CLASSIFICATION_TYPE":"U","MEAN_MOTION":15.07923578,"ECCENTRICITY":0.0019587,"INCLINATION":97.672,"RA_OF_ASC_NODE":316.9462,"ARG_OF_PERICENTER":146.7303,"MEAN_ANOMALY":213.5161,"EPHEMERIS_TYPE":0,"NORAD_CAT_ID":49338,"ELEMENT_SET_NO":999,"REV_AT_EPOCH":25972,"BSTAR":0.00013958,"MEAN_MOTION_DOT":0.00002087,"MEAN_MOTION_DDOT":0},{"OBJECT_NAME":"JILIN-1 GAOFEN 3D27","OBJECT_ID":"2022-048B","EPOCH":"2026-07-09T20:29:13.073856","CLASSIFICATION_TYPE":"U","MEAN_MOTION":15.81648639,"ECCENTRICITY":0.000453,"INCLINATION":97.5712,"RA_OF_ASC_NODE":306.9504,"ARG_OF_PERICENTER":258.2754,"MEAN_ANOMALY":101.8005,"EPHEMERIS_TYPE":0,"NORAD_CAT_ID":52444,"ELEMENT_SET_NO":999,"REV_AT_EPOCH":23305,"BSTAR":0.00072494,"MEAN_MOTION_DOT":0.00146651,"MEAN_MOTION_DDOT":0},{"OBJECT_NAME":"JILIN-1 GAOFEN 3D28","OBJECT_ID":"2022-048C","EPOCH":"2026-07-09T16:10:42.462048","CLASSIFICATION_TYPE":"U","MEAN_MOTION":15.86124176,"ECCENTRICITY":0.0004162,"INCLINATION":97.5648,"RA_OF_ASC_NODE":307.0162,"ARG_OF_PERICENTER":251.9823,"MEAN_ANOMALY":108.0994,"EPHEMERIS_TYPE":0,"NORAD_CAT_ID":52445,"ELEMENT_SET_NO":999,"REV_AT_EPOCH":23308,"BSTAR":0.00077292,"MEAN_MOTION_DOT":0.00194076,"MEAN_MOTION_DDOT":0},{"OBJECT_NAME":"JILIN-1 GAOFEN 3D29","OBJECT_ID":"2022-048D","EPOCH":"2026-07-09T18:37:23.397600","CLASSIFICATION_TYPE":"U","MEAN_MOTION":15.81823807,"ECCENTRICITY":0.0003949,"INCLINATION":97.5712,"RA_OF_ASC_NODE":307.2294,"ARG_OF_PERICENTER":237.2312,"MEAN_ANOMALY":122.8576,"EPHEMERIS_TYPE":0,"NORAD_CAT_ID":52446,"ELEMENT_SET_NO":999,"REV_AT_EPOCH":23306,"BSTAR":0.00073848,"MEAN_MOTION_DOT":0.00150649,"MEAN_MOTION_DDOT":0},{"OBJECT_NAME":"JILIN-1 GAOFEN 3D31","OBJECT_ID":"2022-048F","EPOCH":"2026-07-09T18:37:06.135744","CLASSIFICATION_TYPE":"U","MEAN_MOTION":15.91251461,"ECCENTRICITY":0.0005008,"INCLINATION":97.569,"RA_OF_ASC_NODE":308.4915,"ARG_OF_PERICENTER":245.1655,"MEAN_ANOMALY":114.9098,"EPHEMERIS_TYPE":0,"NORAD_CAT_ID":52448,"ELEMENT_SET_NO":999,"REV_AT_EPOCH":23316,"BSTAR":0.00084874,"MEAN_MOTION_DOT":0.00268457,"MEAN_MOTION_DDOT":0.000028894},{"OBJECT_NAME":"JILIN-1 GAOFEN 03D09","OBJECT_ID":"2022-098B","EPOCH":"2026-07-09T20:47:21.009696","CLASSIFICATION_TYPE":"U","MEAN_MOTION":15.69636062,"ECCENTRICITY":0.0003081,"INCLINATION":97.5614,"RA_OF_ASC_NODE":322.2923,"ARG_OF_PERICENTER":251.7649,"MEAN_ANOMALY":108.3277,"EPHEMERIS_TYPE":0,"NORAD_CAT_ID":53445,"ELEMENT_SET_NO":999,"REV_AT_EPOCH":21818,"BSTAR":0.00055635,"MEAN_MOTION_DOT":0.00066056,"MEAN_MOTION_DDOT":0},{"OBJECT_NAME":"JILIN-1 GAOFEN 03D43","OBJECT_ID":"2022-098E","EPOCH":"2026-07-09T18:59:09.030336","CLASSIFICATION_TYPE":"U","MEAN_MOTION":15.7323849,"ECCENTRICITY":0.0003373,"INCLINATION":97.56,"RA_OF_ASC_NODE":323.3413,"ARG_OF_PERICENTER":243.2003,"MEAN_ANOMALY":116.8915,"EPHEMERIS_TYPE":0,"NORAD_CAT_ID":53448,"ELEMENT_SET_NO":999,"REV_AT_EPOCH":21824,"BSTAR":0.00060845,"MEAN_MOTION_DOT":0.00084195,"MEAN_MOTION_DDOT":0},{"OBJECT_NAME":"JILIN-1 GAOFEN 03D08","OBJECT_ID":"2022-155A","EPOCH":"2026-07-09T20:27:00.557856","CLASSIFICATION_TYPE":"U","MEAN_MOTION":15.67065049,"ECCENTRICITY":0.0003973,"INCLINATION":97.6222,"RA_OF_ASC_NODE":338.1074,"ARG_OF_PERICENTER":247.6835,"MEAN_ANOMALY":112.4004,"EPHEMERIS_TYPE":0,"NORAD_CAT_ID":54251,"ELEMENT_SET_NO":999,"REV_AT_EPOCH":20336,"BSTAR":0.00051371,"MEAN_MOTION_DOT":0.00054854,"MEAN_MOTION_DDOT":0}]}
